OBJECT_NAME,OBJECT_ID,EPOCH,MEAN_MOTION,ECCENTRICITY,INCLINATION,RA_OF_ASC_NODE,ARG_OF_PERICENTER,MEAN_ANOMALY,EPHEMERIS_TYPE,CLASSIFICATION_TYPE,NORAD_CAT_ID,ELEMENT_SET_NO,REV_AT_EPOCH,BSTAR,MEAN_MOTION_DOT,MEAN_MOTION_DDOT
KOREASAT 5 (MUGUNGWHA 5),2006-034A,2026-07-23T18:39:15.086880,1.00270216,.0002012,1.8768,82.5338,80.6215,171.2035,0,U,29349,999,4168,0,-.355E-5,0
DIRECTV 9S,2006-043A,2026-07-23T14:12:49.401216,1.00271943,.0005226,2.5119,80.4631,35.5449,297.3151,0,U,29494,999,5174,0,-.111E-5,0
OPTUS D1,2006-043B,2026-07-23T18:50:21.522048,1.00272002,.0003797,3.1261,79.2062,39.1494,257.7074,0,U,29495,999,7248,0,-.182E-5,0
BADR-4,2006-051A,2026-07-23T20:43:38.711136,1.00276596,.0005043,2.0966,80.7174,38.4360,167.8587,0,U,29526,999,5163,0,.159E-5,0
WILDBLUE-1,2006-054A,2026-07-23T14:37:52.610016,0.99721363,.0002551,2.8943,80.0187,11.2863,316.6296,0,U,29643,999,5415,0,.35E-6,0
SKYNET 5A,2007-007B,2026-07-23T20:27:21.513312,1.00271604,.0003417,5.3901,73.2869,53.6916,216.6587,0,U,30794,999,7106,0,-.271E-5,0
ANIK F3,2007-009A,2026-07-23T17:33:11.331360,1.00273669,.0002803,1.2892,83.4162,39.5897,323.0441,0,U,31102,999,4693,0,.2E-7,0
ASTRA 1L,2007-016A,2026-07-23T19:42:44.711712,1.00271823,.0005577,1.4135,81.2825,38.3126,93.1220,0,U,31306,999,4535,0,-.181E-5,0
GALAXY 17 (G-17),2007-016B,2026-07-23T19:25:25.660128,1.00272122,.0003566,3.0611,79.4390,35.7684,32.6684,0,U,31307,999,7017,0,-.204E-5,0
INTELSAT 11 (IS-11),2007-044B,2026-07-23T09:24:13.482144,0.99051909,.0004704,3.6568,78.2255,98.6762,231.9004,0,U,32253,999,6880,0,-.238E-5,0
WGS F1 (USA 195),2007-046A,2026-07-23T09:21:36.233280,1.00272007,.000061,0.0154,82.3611,75.1967,241.4372,0,U,32258,999,5269,0,-.262E-5,0
SKYNET 5B,2007-056B,2026-07-23T20:51:26.650080,1.00271427,.0003561,5.3417,73.0616,48.0351,158.4446,0,U,32294,999,6856,0,.14E-5,0
ASTRA 4A,2007-057A,2026-07-23T21:07:38.548128,1.00270798,.0002706,0.0554,271.2032,209.8155,142.3024,0,U,32299,999,5201,0,.37E-6,0
HORIZONS-2,2007-063B,2026-07-23T19:28:40.349568,1.00271793,.0003707,2.6936,80.1770,22.4176,57.3135,0,U,32388,999,6818,0,-.251E-5,0
THURAYA-3,2008-001A,2026-07-23T14:59:56.536224,1.00274433,.0002491,6.0494,35.8237,85.5519,108.6951,0,U,32404,999,6785,0,.9E-7,0
THOR 5,2008-006A,2026-07-23T19:49:29.067168,1.00271236,.0002633,0.0579,245.4185,238.5087,114.2425,0,U,32487,999,6768,0,-.4E-7,0
AMC-14,2008-011A,2026-07-22T23:41:27.623328,1.00419907,.00387559,24.0515,20.0867,8.5311,350.3521,0,U,32708,999,6852,0,-.218E-5,0
DIRECTV 11,2008-013A,2026-07-23T09:54:20.158848,1.00272046,.0000213,0.0121,275.8079,165.5207,269.2057,0,U,32729,999,4595,0,-.121E-5,0
ICO G1,2008-016A,2026-07-23T14:15:11.674368,1.00272017,.000214,5.5369,36.0371,82.3231,303.9262,0,U,32763,999,6691,0,-.171E-5,0
VINASAT-1,2008-018A,2026-07-23T12:52:38.807328,1.00270935,.0001977,0.0523,268.7065,222.6185,135.0307,0,U,32767,999,6695,0,-.324E-5,0
STAR ONE C2,2008-018B,2026-07-23T19:31:10.111008,1.00272581,.0003013,1.3310,82.1131,38.0616,49.1571,0,U,32768,999,6702,0,-.273E-5,0
AMOS-3,2008-022A,2026-07-23T20:08:46.326048,1.00492195,.0003264,0.5468,85.7002,80.7709,144.3422,0,U,32794,999,8270,0,-.55E-6,0
GALAXY 18 (G-18),2008-024A,2026-07-23T17:31:56.451072,1.00269676,.0003187,0.0219,58.8506,64.6556,317.9488,0,U,32951,999,4621,0,0,0
ZHONGXING-9,2008-028A,2026-07-23T20:16:00.631200,1.00272346,.0003613,0.8601,84.8885,34.2406,218.8126,0,U,33051,999,6640,0,-.245E-5,0
SKYNET 5C,2008-030A,2026-07-23T19:44:37.034304,1.00272585,.0004482,3.8796,76.6035,51.3671,91.9549,0,U,33055,999,6632,0,-.138E-5,0
TURKSAT 3A,2008-030B,2026-07-23T20:01:39.508320,1.00274811,.0005062,0.0154,65.5800,39.6494,178.7445,0,U,33056,999,5272,0,.151E-5,0
ECHOSTAR 11,2008-035A,2026-07-23T14:10:27.128064,1.00272378,.000248,1.0965,83.7645,32.5973,287.7612,0,U,33207,999,5157,0,-.54E-6,0
SUPERBIRD-C2,2008-038A,2026-07-23T20:28:29.434080,1.00270104,.0006509,2.4526,80.8072,41.8469,262.0328,0,U,33274,999,10609,0,-.304E-5,0
INMARSAT 4-F3,2008-039A,2026-07-23T15:14:06.968832,1.00270743,.0002632,4.3249,31.7073,101.4592,298.7297,0,U,33278,999,4691,0,-.138E-5,0
NIMIQ 4,2008-044A,2026-07-23T19:26:18.077280,1.00270929,.0001918,0.0055,11.4534,119.3296,20.3100,0,U,33373,999,6535,0,-.215E-5,0
GALAXY 19 (G-19),2008-045A,2026-07-23T14:14:04.282368,1.00271745,.0002744,0.0610,250.3488,244.1349,283.3488,0,U,33376,999,6526,0,-.134E-5,0
ASTRA 1M,2008-057A,2026-07-23T19:55:11.301888,1.00274199,.0004841,0.3878,82.8719,45.5193,131.3420,0,U,33436,999,4610,0,.126E-5,0
