KOREASAT 5 (MUGUNGWHA 5)
1 29349U 06034A   26204.77725795 -.00000355  00000+0  00000+0 0  9995
2 29349   1.8768  82.5338 0002012  80.6215 171.2035  1.00270216 41682
DIRECTV 9S              
1 29494U 06043A   26204.59223844 -.00000111  00000+0  00000+0 0  9994
2 29494   2.5119  80.4631 0005226  35.5449 297.3151  1.00271943 51747
OPTUS D1                
1 29495U 06043B   26204.78497132 -.00000182  00000+0  00000+0 0  9997
2 29495   3.1261  79.2062 0003797  39.1494 257.7074  1.00272002 72483
BADR-4                  
1 29526U 06051A   26204.86364249  .00000159  00000+0  00000+0 0  9995
2 29526   2.0966  80.7174 0005043  38.4360 167.8587  1.00276596 51635
WILDBLUE-1              
1 29643U 06054A   26204.60963669  .00000035  00000+0  00000+0 0  9994
2 29643   2.8943  80.0187 0002551  11.2863 316.6296  0.99721363 54158
SKYNET 5A               
1 30794U 07007B   26204.85233233 -.00000271  00000+0  00000+0 0  9999
2 30794   5.3901  73.2869 0003417  53.6916 216.6587  1.00271604 71063
ANIK F3                 
1 31102U 07009A   26204.73138115  .00000002  00000+0  00000+0 0  9996
2 31102   1.2892  83.4162 0002803  39.5897 323.0441  1.00273669 46932
ASTRA 1L                
1 31306U 07016A   26204.82135083 -.00000181  00000+0  00000+0 0  9990
2 31306   1.4135  81.2825 0005577  38.3126  93.1220  1.00271823 45350
GALAXY 17 (G-17)        
1 31307U 07016B   26204.80932477 -.00000204  00000+0  00000+0 0  9997
2 31307   3.0611  79.4390 0003566  35.7684  32.6684  1.00272122 70173
INTELSAT 11 (IS-11)     
1 32253U 07044B   26204.39182271 -.00000238  00000+0  00000+0 0  9999
2 32253   3.6568  78.2255 0004704  98.6762 231.9004  0.99051909 68800
WGS F1 (USA 195)        
1 32258U 07046A   26204.39000270 -.00000262  00000+0  00000+0 0  9991
2 32258   0.0154  82.3611 0000610  75.1967 241.4372  1.00272007 52699
SKYNET 5B               
1 32294U 07056B   26204.86905845  .00000140  00000+0  00000+0 0  9990
2 32294   5.3417  73.0616 0003561  48.0351 158.4446  1.00271427 68562
ASTRA 4A                
1 32299U 07057A   26204.88030727  .00000037  00000+0  00000+0 0  9991
2 32299   0.0554 271.2032 0002706 209.8155 142.3024  1.00270798 52011
HORIZONS-2              
1 32388U 07063B   26204.81157812 -.00000251  00000+0  00000+0 0  9994
2 32388   2.6936  80.1770 0003707  22.4176  57.3135  1.00271793 68181
THURAYA-3               
1 32404U 08001A   26204.62495991  .00000009  00000+0  00000+0 0  9998
2 32404   6.0494  35.8237 0002491  85.5519 108.6951  1.00274433 67855
THOR 5                  
1 32487U 08006A   26204.82603087 -.00000004  00000+0  00000+0 0  9999
2 32487   0.0579 245.4185 0002633 238.5087 114.2425  1.00271236 67681
AMC-14                  
1 32708U 08011A   26203.98712527 -.00000218  00000+0  00000+0 0  9994
2 32708  24.0515  20.0867 0038755   8.5311 350.3521  1.00419907 68529
DIRECTV 11              
1 32729U 08013A   26204.41273332 -.00000121  00000+0  00000+0 0  9997
2 32729   0.0121 275.8079 0000213 165.5207 269.2057  1.00272046 45955
ICO G1                  
1 32763U 08016A   26204.59388512 -.00000171  00000+0  00000+0 0  9999
2 32763   5.5369  36.0371 0002140  82.3231 303.9262  1.00272017 66914
VINASAT-1               
1 32767U 08018A   26204.53656027 -.00000324  00000+0  00000+0 0  9998
2 32767   0.0523 268.7065 0001977 222.6185 135.0307  1.00270935 66953
STAR ONE C2             
1 32768U 08018B   26204.81331147 -.00000273  00000+0  00000+0 0  9996
2 32768   1.3310  82.1131 0003013  38.0616  49.1571  1.00272581 67021
AMOS-3                  
1 32794U 08022A   26204.83942507 -.00000055  00000+0  00000+0 0  9998
2 32794   0.5468  85.7002 0003264  80.7709 144.3422  1.00492195 82706
GALAXY 18 (G-18)        
1 32951U 08024A   26204.73051448  .00000000  00000+0  00000+0 0  9998
2 32951   0.0219  58.8506 0003187  64.6556 317.9488  1.00269676 46217
ZHONGXING-9             
1 33051U 08028A   26204.84445175 -.00000245  00000+0  00000+0 0  9992
2 33051   0.8601  84.8885 0003613  34.2406 218.8126  1.00272346 66401
SKYNET 5C               
1 33055U 08030A   26204.82265086 -.00000138  00000+0  00000+0 0  9999
2 33055   3.8796  76.6035 0004482  51.3671  91.9549  1.00272585 66323
TURKSAT 3A              
1 33056U 08030B   26204.83448505  .00000151  00000+0  00000+0 0  9994
2 33056   0.0154  65.5800 0005062  39.6494 178.7445  1.00274811 52727
ECHOSTAR 11             
1 33207U 08035A   26204.59059176 -.00000054  00000+0  00000+0 0  9995
2 33207   1.0965  83.7645 0002480  32.5973 287.7612  1.00272378 51575
SUPERBIRD-C2            
1 33274U 08038A   26204.85311845 -.00000304  00000+0  00000+0 0  9993
2 33274   2.4526  80.8072 0006509  41.8469 262.0328  1.00270104106091
INMARSAT 4-F3           
1 33278U 08039A   26204.63480288 -.00000138  00000+0  00000+0 0  9997
2 33278   4.3249  31.7073 0002632 101.4592 298.7297  1.00270743 46911
NIMIQ 4                 
1 33373U 08044A   26204.80993145 -.00000215  00000+0  00000+0 0  9995
2 33373   0.0055  11.4534 0001918 119.3296  20.3100  1.00270929 65354
GALAXY 19 (G-19)        
1 33376U 08045A   26204.59310512 -.00000134  00000+0  00000+0 0  9996
2 33376   0.0610 250.3488 0002744 244.1349 283.3488  1.00271745 65267
ASTRA 1M                
1 33436U 08057A   26204.82999192  .00000126  00000+0  00000+0 0  9999
2 33436   0.3878  82.8719 0004841  45.5193 131.3420  1.00274199 46104
